{"type": "FeatureCollection", "features": [ {"type": "Feature", "properties": {"norad_id": 35284, "name": "COSMOS 2251 DEB", "group": "cosmos-2251-debris", "lat": 33.154573205177336, "lon": 84.48141136321728, "alt_km": 772.1707672166094, "timestamp": "2025-12-06T20:37:56.471585+00:00", "meta": {"OBJECT_NAME": "COSMOS 2251 DEB", "OBJECT_ID": "1993-036AJN", "EPOCH": "2025-12-06T14:07:12.355680", "MEAN_MOTION": 14.38306996, "ECCENTRICITY": 0.00165553, "INCLINATION": 74.0489, "RA_OF_ASC_NODE": 275.7489, "ARG_OF_PERICENTER": 353.4486, "MEAN_ANOMALY": 187.2786, "EPHEMERIS_TYPE": 0, "CLASSIFICATION_TYPE": "U", "NORAD_CAT_ID": 35284, "ELEMENT_SET_NO": 999, "REV_AT_EPOCH": 65437, "BSTAR": 0.00034127282, "MEAN_MOTION_DOT": 1.014e-05, "MEAN_MOTION_DDOT": 0}, "tle": {"line1": "1 35284U 93036AJN 25340.58833745  .00001014  00000+0  34127-3 0  9995", "line2": "2 35284  74.0489 275.7489 0016555 353.4486 187.2786 14.38306996654376"}}, "geometry": {"type": "Point", "coordinates": [84.48141136321728, 33.154573205177336]}}, {"type": "Feature", "properties": {"norad_id": 35287, "name": "COSMOS 2251 DEB", "group": "cosmos-2251-debris", "lat": 1.5722781257276226, "lon": -72.60906000561414, "alt_km": 761.5814181563283, "timestamp": "2025-12-06T20:37:56.471596+00:00", "meta": {"OBJECT_NAME": "COSMOS 2251 DEB", "OBJECT_ID": "1993-036AJR", "EPOCH": "2025-12-06T14:46:42.553056", "MEAN_MOTION": 14.36367824, "ECCENTRICITY": 0.0017303, "INCLINATION": 74.0302, "RA_OF_ASC_NODE": 287.3886, "ARG_OF_PERICENTER": 25.7968, "MEAN_ANOMALY": 155.294, "EPHEMERIS_TYPE": 0, "CLASSIFICATION_TYPE": "U", "NORAD_CAT_ID": 35287, "ELEMENT_SET_NO": 999, "REV_AT_EPOCH": 86804, "BSTAR": 0.00028116619, "MEAN_MOTION_DOT": 7.98e-06, "MEAN_MOTION_DDOT": 0}, "tle": {"line1": "1 35287U 93036AJR 25340.61577029  .00000798  00000+0  28117-3 0  9992", "line2": "2 35287  74.0302 287.3886 0017303  25.7968 155.2940 14.36367824868042"}}, "geometry": {"type": "Point", "coordinates": [-72.60906000561414, 1.5722781257276226]}}, {"type": "Feature", "properties": {"norad_id": 35288, "name": "COSMOS 2251 DEB", "group": "cosmos-2251-debris", "lat": -70.17072690689123, "lon": -100.47982943687104, "alt_km": 654.9072727401417, "timestamp": "2025-12-06T20:37:56.471606+00:00", "meta": {"OBJECT_NAME": "COSMOS 2251 DEB", "OBJECT_ID": "1993-036AJS", "EPOCH": "2025-12-05T20:30:59.855616", "MEAN_MOTION": 14.65344236, "ECCENTRICITY": 0.00396154, "INCLINATION": 73.9509, "RA_OF_ASC_NODE": 28.4958, "ARG_OF_PERICENTER": 262.8912, "MEAN_ANOMALY": 96.775, "EPHEMERIS_TYPE": 0, "CLASSIFICATION_TYPE": "U", "NORAD_CAT_ID": 35288, "ELEMENT_SET_NO": 999, "REV_AT_EPOCH": 87777, "BSTAR": 0.0019659658, "MEAN_MOTION_DOT": 0.00010724, "MEAN_MOTION_DDOT": 0}, "tle": {"line1": "1 35288U 93036AJS 25339.85485944  .00010724  00000+0  19660-2 0  9993", "line2": "2 35288  73.9509  28.4958 0039615 262.8912  96.7750 14.65344236877779"}}, "geometry": {"type": "Point", "coordinates": [-100.47982943687104, -70.17072690689123]}}, {"type": "Feature", "properties": {"norad_id": 35290, "name": "COSMOS 2251 DEB", "group": "cosmos-2251-debris", "lat": -41.575072011458815, "lon": -94.21700775286835, "alt_km": 633.2650694465319, "timestamp": "2025-12-06T20:37:56.471617+00:00", "meta": {"OBJECT_NAME": "COSMOS 2251 DEB", "OBJECT_ID": "1993-036AJU", "EPOCH": "2025-12-06T13:08:12.197760", "MEAN_MOTION": 14.80095021, "ECCENTRICITY": 0.00029705, "INCLINATION": 74.0056, "RA_OF_ASC_NODE": 71.6588, "ARG_OF_PERICENTER": 203.675, "MEAN_ANOMALY": 156.429, "EPHEMERIS_TYPE": 0, "CLASSIFICATION_TYPE": "U", "NORAD_CAT_ID": 35290, "ELEMENT_SET_NO": 999, "REV_AT_EPOCH": 87866, "BSTAR": 0.0036640672, "MEAN_MOTION_DOT": 0.0002787, "MEAN_MOTION_DDOT": 0}, "tle": {"line1": "1 35290U 93036AJU 25340.54736340  .00027870  00000+0  36641-2 0  9991", "line2": "2 35290  74.0056  71.6588 0002970 203.6750 156.4290 14.80095021878661"}}, "geometry": {"type": "Point", "coordinates": [-94.21700775286835, -41.575072011458815]}}, {"type": "Feature", "properties": {"norad_id": 35432, "name": "COSMOS 2251 DEB", "group": "cosmos-2251-debris", "lat": -63.664972026963866, "lon": -7.444847794996823, "alt_km": 504.7358510914546, "timestamp": "2025-12-06T20:37:56.471627+00:00", "meta": {"OBJECT_NAME": "COSMOS 2251 DEB", "OBJECT_ID": "1993-036AKA", "EPOCH": "2025-12-06T13:02:26.977920", "MEAN_MOTION": 15.20957014, "ECCENTRICITY": 0.00121909, "INCLINATION": 74.0212, "RA_OF_ASC_NODE": 28.5919, "ARG_OF_PERICENTER": 348.2705, "MEAN_ANOMALY": 11.8207, "EPHEMERIS_TYPE": 0, "CLASSIFICATION_TYPE": "U", "NORAD_CAT_ID": 35432, "ELEMENT_SET_NO": 999, "REV_AT_EPOCH": 87409, "BSTAR": 0.0090355975, "MEAN_MOTION_DOT": 0.00206244, "MEAN_MOTION_DDOT": 0}, "tle": {"line1": "1 35432U 93036AKA 25340.54336780  .00206244  00000+0  90356-2 0  9990", "line2": "2 35432  74.0212  28.5919 0012190 348.2705  11.8207 15.20957014874092"}}, "geometry": {"type": "Point", "coordinates": [-7.444847794996823, -63.664972026963866]}}, {"type": "Feature", "properties": {"norad_id": 35433, "name": "COSMOS 2251 DEB", "group": "cosmos-2251-debris", "lat": 24.28045643127405, "lon": 161.80002107419637, "alt_km": 780.6466061830224, "timestamp": "2025-12-06T20:37:56.471641+00:00", "meta": {"OBJECT_NAME": "COSMOS 2251 DEB", "OBJECT_ID": "1993-036AKB", "EPOCH": "2025-12-05T19:38:16.327392", "MEAN_MOTION": 14.34730306, "ECCENTRICITY": 0.00254596, "INCLINATION": 74.0335, "RA_OF_ASC_NODE": 351.128, "ARG_OF_PERICENTER": 48.4343, "MEAN_ANOMALY": 128.9694, "EPHEMERIS_TYPE": 0, "CLASSIFICATION_TYPE": "U", "NORAD_CAT_ID": 35433, "ELEMENT_SET_NO": 999, "REV_AT_EPOCH": 86481, "BSTAR": 0.00044039966, "MEAN_MOTION_DOT": 1.226e-05, "MEAN_MOTION_DDOT": 0}, "tle": {"line1": "1 35433U 93036AKB 25339.81824453  .00001226  00000+0  44040-3 0  9991", "line2": "2 35433  74.0335 351.1280 0025459  48.4343 128.9694 14.34730306864810"}}, "geometry": {"type": "Point", "coordinates": [161.80002107419637, 24.28045643127405]}}, {"type": "Feature", "properties": {"norad_id": 35434, "name": "COSMOS 2251 DEB", "group": "cosmos-2251-debris", "lat": -71.45432187797559, "lon": 102.7759247917496, "alt_km": 761.9458092990708, "timestamp": "2025-12-06T20:37:56.471652+00:00", "meta": {"OBJECT_NAME": "COSMOS 2251 DEB", "OBJECT_ID": "1993-036AKC", "EPOCH": "2025-12-06T00:52:57.349632", "MEAN_MOTION": 14.25656227, "ECCENTRICITY": 0.00876297, "INCLINATION": 74.0405, "RA_OF_ASC_NODE": 225.7219, "ARG_OF_PERICENTER": 297.8832, "MEAN_ANOMALY": 61.3459, "EPHEMERIS_TYPE": 0, "CLASSIFICATION_TYPE": "U", "NORAD_CAT_ID": 35434, "ELEMENT_SET_NO": 999, "REV_AT_EPOCH": 86022, "BSTAR": 0.0011383466, "MEAN_MOTION_DOT": 2.784e-05, "MEAN_MOTION_DDOT": 0}, "tle": {"line1": "1 35434U 93036AKC 25340.03677488  .00002784  00000+0  11383-2 0  9995", "line2": "2 35434  74.0405 225.7219 0087629 297.8832  61.3459 14.25656227860226"}}, "geometry": {"type": "Point", "coordinates": [102.7759247917496, -71.45432187797559]}}, {"type": "Feature", "properties": {"norad_id": 35435, "name": "COSMOS 2251 DEB", "group": "cosmos-2251-debris", "lat": 56.746352483670904, "lon": 141.5663646247152, "alt_km": 634.7213423901576, "timestamp": "2025-12-06T20:37:56.471663+00:00", "meta": {"OBJECT_NAME": "COSMOS 2251 DEB", "OBJECT_ID": "1993-036AKD", "EPOCH": "2025-12-06T15:33:19.570752", "MEAN_MOTION": 14.78155636, "ECCENTRICITY": 0.00089158, "INCLINATION": 74.011, "RA_OF_ASC_NODE": 116.0521, "ARG_OF_PERICENTER": 210.6381, "MEAN_ANOMALY": 164.7127, "EPHEMERIS_TYPE": 0, "CLASSIFICATION_TYPE": "U", "NORAD_CAT_ID": 35435, "ELEMENT_SET_NO": 999, "REV_AT_EPOCH": 87449, "BSTAR": 0.0041982547, "MEAN_MOTION_DOT": 0.00030535, "MEAN_MOTION_DDOT": 0}, "tle": {"line1": "1 35435U 93036AKD 25340.64814318  .00030535  00000+0  41983-2 0  9992", "line2": "2 35435  74.0110 116.0521 0008915 210.6381 164.7127 14.78155636874491"}}, "geometry": {"type": "Point", "coordinates": [141.5663646247152, 56.746352483670904]}}, {"type": "Feature", "properties": {"norad_id": 35439, "name": "COSMOS 2251 DEB", "group": "cosmos-2251-debris", "lat": 0.26852232678024085, "lon": 144.89179950205363, "alt_km": 794.5504406711116, "timestamp": "2025-12-06T20:37:56.471674+00:00", "meta": {"OBJECT_NAME": "COSMOS 2251 DEB", "OBJECT_ID": "1993-036AKH", "EPOCH": "2025-12-06T05:59:35.063232", "MEAN_MOTION": 13.92766526, "ECCENTRICITY": 0.02419007, "INCLINATION": 74.0202, "RA_OF_ASC_NODE": 145.8594, "ARG_OF_PERICENTER": 316.5639, "MEAN_ANOMALY": 224.7042, "EPHEMERIS_TYPE": 0, "CLASSIFICATION_TYPE": "U", "NORAD_CAT_ID": 35439, "ELEMENT_SET_NO": 999, "REV_AT_EPOCH": 83870, "BSTAR": 0.0024796152, "MEAN_MOTION_DOT": 4.056e-05, "MEAN_MOTION_DDOT": 0}, "tle": {"line1": "1 35439U 93036AKH 25340.24971138  .00004056  00000+0  24796-2 0  9998", "line2": "2 35439  74.0202 145.8594 0241900 316.5639 224.7042 13.92766526838700"}}, "geometry": {"type": "Point", "coordinates": [144.89179950205363, 0.26852232678024085]}}, {"type": "Feature", "properties": {"norad_id": 35440, "name": "COSMOS 2251 DEB", "group": "cosmos-2251-debris", "lat": -71.85532264484532, "lon": 100.02831027075206, "alt_km": 680.056737248613, "timestamp": "2025-12-06T20:37:56.471684+00:00", "meta": {"OBJECT_NAME": "COSMOS 2251 DEB", "OBJECT_ID": "1993-036AKJ", "EPOCH": "2025-12-06T09:38:05.104608", "MEAN_MOTION": 14.68762875, "ECCENTRICITY": 0.00690609, "INCLINATION": 74.0153, "RA_OF_ASC_NODE": 219.9077, "ARG_OF_PERICENTER": 2.2892, "MEAN_ANOMALY": 357.858, "EPHEMERIS_TYPE": 0, "CLASSIFICATION_TYPE": "U", "NORAD_CAT_ID": 35440, "ELEMENT_SET_NO": 999, "REV_AT_EPOCH": 68672, "BSTAR": 0.00092938543, "MEAN_MOTION_DOT": 5.591e-05, "MEAN_MOTION_DDOT": 0}, "tle": {"line1": "1 35440U 93036AKJ 25340.40144797  .00005591  00000+0  92939-3 0  9991", "line2": "2 35440  74.0153 219.9077 0069060   2.2892 357.8580 14.68762875686726"}}, "geometry": {"type": "Point", "coordinates": [100.02831027075206, -71.85532264484532]}}]}